[Satellite]
VERSION=1.1
NAME=NEE-01 PEGASUS
NICKNAME=NEE-01 PEGASUS
TLE1=1 39151U 13018B   20158.04433800  .00000128  00000-0  23748-4 0  9999
TLE2=2 39151  97.9724 256.9385 0018125 134.3614 225.9086 14.80169983383999
STATUS=0
